Brand,Store Number,Store Name,Ownership Type,Address,City,State/Province,Country,Postcode,Phone Number,Timezone,Longitude,Latitude,,,,,,,,,,,
Starbucks,12929-137795,Clapham - St. John's Road,Company Owned,"37-39 St. John's Road, Brixton Underground Station",London,ENG,GB,SW11 1QN,2079244670,GMT+0:00 Europe/London,-0.114748,51.462598,,"37-39 St. John's Road, Brixton Underground Station SW11 1QN",,,,,,,"37-39 St. John's Road, Brixton Underground Station SW11 1QN",51.462598,-0.114748
Starbucks,7013-150064,Brixton Station,Company Owned,"Shop 5, Brixton Underground Station",London,ENG,GB,SW9,2072747979,GMT+0:00 Europe/London,-0.114816,51.462551,,"Shop 5, Brixton Underground Station SW9",,,,,,,"Shop 5, Brixton Underground Station SW9",51.462551,-0.114816
Starbucks,14945-154366,Stansted Airport DT,Franchise,"A120 Thermal Lane, London Stansted Airport",London,ENG,GB,CM24 1PY,01279 680361,GMT+0:00 Europe/London,0.249891,51.875433,,"A120 Thermal Lane, London Stansted Airport CM24 1PY",,,,,,,"A120 Thermal Lane, London Stansted Airport CM24 1PY",51.875433,0.249891
Starbucks,12949-140506,Juxon House - St. Pauls Church Yard,Company Owned,"St. Paul's Church Yard, Juxon House, Unit 2, Regents Corner",London,ENG,GB,EC4M 8EH,2072480359,GMT+0:00 Europe/London,-0.099727,51.514189,,"St. Paul's Church Yard, Juxon House, Unit 2, Regents Corner EC4M 8EH",,,,,,,"St. Paul's Church Yard, Juxon House, Unit 2, Regents Corner EC4M 8EH",51.514189,-0.099727
Starbucks,12600-98209,Pentonville Road,Company Owned,"296 Pentoville Road, Regents Corner, London - KingsCross",London,ENG,GB,N1 9NR,2078121073,GMT+0:00 Europe/London,-0.121959,51.530904,,"296 Pentoville Road, Regents Corner, London - KingsCross N1 9NR",,,,,,,"296 Pentoville Road, Regents Corner, London - KingsCross N1 9NR",51.530904,-0.121959
Starbucks,12130-15520,Earls Court Road,Company Owned,186 Earls Court Road,London,ENG,GB,SW5 9QG,2073731067,GMT+0:00 Europe/London,-0.194507,51.493014,,186 Earls Court Road SW5 9QG,,,,,,,186 Earls Court Road SW5 9QG,51.493014,-0.194507
Starbucks,12079-11904,Notting Hill - Portobello Road,Company Owned,227 Portobello Road,London,ENG,GB,W11 1LT,2077275881,GMT+0:00 Europe/London,-0.205901,51.51683,,227 Portobello Road W11 1LT,,,,,,,227 Portobello Road W11 1LT,51.51683,-0.205901
Starbucks,12283-55721,Great Portland Street,Company Owned,"159 Great Portland Street, Canary Wharf - Jubilee",London,ENG,GB,W1N 5FD,2076362038,GMT+0:00 Europe/London,-0.143513,51.521412,,"159 Great Portland Street, Canary Wharf - Jubilee W1N 5FD",,,,,,,"159 Great Portland Street, Canary Wharf - Jubilee W1N 5FD",51.521412,-0.143513
Starbucks,12081-11216,Canary Wharf - Canada Square,Company Owned,"Unit R:P:490, One Canada Square",London,ENG,GB,E14  5AB,2075129908,GMT+0:00 Europe/London,-0.018761,51.503182,,"Unit R:P:490, One Canada Square E14  5AB",,,,,,,"Unit R:P:490, One Canada Square E14  5AB",51.503182,-0.018761
Starbucks,12680-104297,Balham - Bedford Hill,Company Owned,"41 - 43 Bedford Hill, Balham",London,ENG,GB,SW12 9EY,2087726583,GMT+0:00 Europe/London,-0.150258,51.443973,,"41 - 43 Bedford Hill, Balham SW12 9EY",,,,,,,"41 - 43 Bedford Hill, Balham SW12 9EY",51.443973,-0.150258
Starbucks,12063-10609,Earls Court - Old Brompton Road,Company Owned,259 Old Brompton Road,London,ENG,GB,SW5 9HP,2073706482,GMT+0:00 Europe/London,-0.19116,51.488984,,259 Old Brompton Road SW5 9HP,,,,,,,259 Old Brompton Road SW5 9HP,51.488984,-0.19116
Starbucks,12365-77687,Walbrook,Company Owned,38 Walbrook,London,ENG,GB,EC4N 8BN,2076261391,GMT+0:00 Europe/London,-0.090039,51.512613,,38 Walbrook EC4N 8BN,,,,,,,38 Walbrook EC4N 8BN,51.512613,-0.090039
Starbucks,12823-140547,Wigmore Street,Company Owned,132 Wigmore Street,London,ENG,GB,W1U 3SD,2074875417,GMT+0:00 Europe/London,-0.153879,51.515642,,132 Wigmore Street W1U 3SD,,,,,,,132 Wigmore Street W1U 3SD,51.515642,-0.153879
Starbucks,16936-176204,"Tooting Broadway, Mitcham Road",Company Owned,"2 Mitcham Road, Tooting Broadway",London,ENG,GB,SW17 9ND,2087678321,GMT+0:00 Europe/London,-0.168032,51.427633,,"2 Mitcham Road, Tooting Broadway SW17 9ND",,,,,,,"2 Mitcham Road, Tooting Broadway SW17 9ND",51.427633,-0.168032
Starbucks,12401-85700,Islington - High Street,Company Owned,"7 Islington High st, Chantrey House",London,ENG,GB,N1 9LQ,2072784778,GMT+0:00 Europe/London,-0.106413,51.532275,,"7 Islington High st, Chantrey House N1 9LQ",,,,,,,"7 Islington High st, Chantrey House N1 9LQ",51.532275,-0.106413
Starbucks,12373-78720,Victoria - Buckingham Palace Road,Company Owned,"98 Buckingham Palace road, Chantrey House",London,ENG,GB,SW1W 0SS,2072590347,GMT+0:00 Europe/London,-0.147063,51.494427,,"98 Buckingham Palace road, Chantrey House SW1W 0SS",,,,,,,"98 Buckingham Palace road, Chantrey House SW1W 0SS",51.494427,-0.147063
Starbucks,48307-262809,Wood Lane Underground Station-,Franchise,Wood Lane Underground Station,London,ENG,GB,W12 7RH,2087492014,GMT+0:00 Europe/London,-0.224301,51.510024,,Wood Lane Underground Station W12 7RH,,,,,,,Wood Lane Underground Station W12 7RH,51.510024,-0.224301
Starbucks,48984-265754,Ealing Broadway Haven Green,Company Owned,"The Broadway, Central Chambers",London,ENG,GB,W5 2NT,2085673943,GMT+0:00 Europe/London,-0.302482,51.514824,,"The Broadway, Central Chambers W5 2NT",,,,,,,"The Broadway, Central Chambers W5 2NT",51.514824,-0.302482
Starbucks,12917-137790,Moorgate,Company Owned,17 Moorgate,London,ENG,GB,EC2R 6PH,020 7600 6967,GMT+0:00 Europe/London,-0.089618,51.515584,,17 Moorgate EC2R 6PH,,,,,,,17 Moorgate EC2R 6PH,51.515584,-0.089618
Starbucks,12177-23186,Earls Court - Sainsbury's,Company Owned,"158 Cromwell Road, Coffe Shop Unit Sainsbury's",London,ENG,GB,SW7 4EJ,2073703416,GMT+0:00 Europe/London,-0.188578,51.494926,,"158 Cromwell Road, Coffe Shop Unit Sainsbury's SW7 4EJ",,,,,,,"158 Cromwell Road, Coffe Shop Unit Sainsbury's SW7 4EJ",51.494926,-0.188578
Starbucks,12971-140948,London - Westfield - Upper Mall,Company Owned,Unit 2122,London,ENG,GB,W12 7GE,2087497088,GMT+0:00 Europe/London,-0.221309,51.507923,,Unit 2122 W12 7GE,,,,,,,Unit 2122 W12 7GE,51.507923,-0.221309
Starbucks,12768-140465,Dulwich - Sainsbury's,Company Owned,"80 Dog Kennel Hill, East Dulwich",London,ENG,GB,SE22 8AA,2077334314,GMT+0:00 Europe/London,-0.084761,51.462173,,"80 Dog Kennel Hill, East Dulwich SE22 8AA",,,,,,,"80 Dog Kennel Hill, East Dulwich SE22 8AA",51.462173,-0.084761
Starbucks,12385-82660,Victoria-Palmer Street,Company Owned,16-18 Palmer Street,London,ENG,GB,SW1H 0AD,2072333475,GMT+0:00 Europe/London,-0.135581,51.498949,,16-18 Palmer Street SW1H 0AD,,,,,,,16-18 Palmer Street SW1H 0AD,51.498949,-0.135581
Starbucks,12073-11116,Kensington - Gloucester Rd,Company Owned,"17-35 Gloucester Road, Unit 5",London,ENG,GB,SW7 4PL,2075812368,GMT+0:00 Europe/London,-0.183485,51.498089,,"17-35 Gloucester Road, Unit 5 SW7 4PL",,,,,,,"17-35 Gloucester Road, Unit 5 SW7 4PL",51.498089,-0.183485
Starbucks,12362-75901,Fulham Broadway Station,Company Owned,"Fulham Broadway Station, Unit 4",London,ENG,GB,SW61BY,2076103736,GMT+0:00 Europe/London,-0.194427,51.480304,,"Fulham Broadway Station, Unit 4 SW61BY",,,,,,,"Fulham Broadway Station, Unit 4 SW61BY",51.480304,-0.194427
Starbucks,12314-62402,Southampton Row,Company Owned,"124 Southhampton Row, Broadway",London,ENG,GB,WC1B 5AA,2074046420,GMT+0:00 Europe/London,-0.122949,51.520765,,"124 Southhampton Row, Broadway WC1B 5AA",,,,,,,"124 Southhampton Row, Broadway WC1B 5AA",51.520765,-0.122949
Starbucks,12052-10419,Muswell Hill - Broadway,Company Owned,"114 Muswell Hill,",London,ENG,GB,N10 3RU,2088838559,GMT+0:00 Europe/London,-0.143593,51.590144,,"114 Muswell Hill, N10 3RU",,,,,,,"114 Muswell Hill, N10 3RU",51.590144,-0.143593
Starbucks,29489-254066,"The Lion, 1 Junction",Franchise,"The Lion, 1 Junction Road, London",London,ENG,GB,N19 5QT,2072721930,GMT+0:00 Europe/London,-0.134352,51.565367,,"The Lion, 1 Junction Road, London N19 5QT",,,,,,,"The Lion, 1 Junction Road, London N19 5QT",51.565367,-0.134352
Starbucks,12359-75880,Clapham High Street,Company Owned,"202/204 Clapham High Street, Ground Floor",London,ENG,GB,SW4 7UD,2076270817,GMT+0:00 Europe/London,-0.138154,51.462106,,"202/204 Clapham High Street, Ground Floor SW4 7UD",,,,,,,"202/204 Clapham High Street, Ground Floor SW4 7UD",51.462106,-0.138154
Starbucks,12671-104117,Greenwich - The O2,Company Owned,"The O2, Unit 101",London,ENG,GB,SE10 0BB,2082691303,GMT+0:00 Europe/London,0.005059,51.502223,,"The O2, Unit 101 SE10 0BB",,,,,,,"The O2, Unit 101 SE10 0BB",51.502223,0.005059
Starbucks,12122-11946,Wardour Street/Hollen Street,Company Owned,"170 Wardour Street, The Circle",London,ENG,GB,W1V 4LA,2072871956,GMT+0:00 Europe/London,-0.135201,51.515279,,"170 Wardour Street, The Circle W1V 4LA",,,,,,,"170 Wardour Street, The Circle W1V 4LA",51.515279,-0.135201
Starbucks,12754-137688,St Pancras International Station,Company Owned,"St Pancras International Station, Unit 24",London,ENG,GB,NW1 2QL,2072784878,GMT+0:00 Europe/London,-0.126368,51.532194,,"St Pancras International Station, Unit 24 NW1 2QL",,,,,,,"St Pancras International Station, Unit 24 NW1 2QL",51.532194,-0.126368
Starbucks,15105-157269,DSGI Fulham,Licensed,Wandsworth Bridge Road,London,ENG,GB,SW6 2TZ,2073847259,GMT+0:00 Europe/London,-0.189858,51.467196,,Wandsworth Bridge Road SW6 2TZ,,,,,,,Wandsworth Bridge Road SW6 2TZ,51.467196,-0.189858
Starbucks,12261-55319,Notting Hill Gate,Company Owned,64 Notting Hill Gate,London,ENG,GB,W11 3HT,2072296233,GMT+0:00 Europe/London,-0.195805,51.509322,,64 Notting Hill Gate W11 3HT,,,,,,,64 Notting Hill Gate W11 3HT,51.509322,-0.195805
Starbucks,12546-95758,Shepherds Bush - Uxbridge Road,Company Owned,"62 Uxbridge Road, Shepherds Bush",London,ENG,GB,W12 8LP,2088112324,GMT+0:00 Europe/London,-0.219491,51.504607,,"62 Uxbridge Road, Shepherds Bush W12 8LP",,,,,,,"62 Uxbridge Road, Shepherds Bush W12 8LP",51.504607,-0.219491
Starbucks,12006-10257,Grosvenor Street,Company Owned,3 Grosvenor Street,London,ENG,GB,W1K 4PU,020 7495 5534,GMT+0:00 Europe/London,-0.145041,51.512259,,3 Grosvenor Street W1K 4PU,,,,,,,3 Grosvenor Street W1K 4PU,51.512259,-0.145041
Starbucks,12207-33145,Finsbury Square,Company Owned,"74/78 Finsbury Pavement, Units 4",London,ENG,GB,EC2A 1AT,2075889286,GMT+0:00 Europe/London,-0.087108,51.520234,,"74/78 Finsbury Pavement, Units 4 EC2A 1AT",,,,,,,"74/78 Finsbury Pavement, Units 4 EC2A 1AT",51.520234,-0.087108
Starbucks,12021-10341,Carnaby Street,Company Owned,"34 Great Marlborough St, (Carnaby Street)",London,ENG,GB,W1F 7JD,2074340778,GMT+0:00 Europe/London,-0.139257,51.513893,,"34 Great Marlborough St, (Carnaby Street) W1F 7JD",,,,,,,"34 Great Marlborough St, (Carnaby Street) W1F 7JD",51.513893,-0.139257
Starbucks,12144-16814,Cowcross Place,Company Owned,"Zinc House, Unit 1",London,ENG,GB,EC1M 6DQ,2074903973,GMT+0:00 Europe/London,-0.103509,51.520263,,"Zinc House, Unit 1 EC1M 6DQ",,,,,,,"Zinc House, Unit 1 EC1M 6DQ",51.520263,-0.103509
Starbucks,17548-183076,Byward Street,Company Owned,9 Byward Street,London,ENG,GB,EC3R 5AS,2072832474,GMT+0:00 Europe/London,-0.079771,51.509791,,9 Byward Street EC3R 5AS,,,,,,,9 Byward Street EC3R 5AS,51.509791,-0.079771
Starbucks,12278-55759,Great Russell Street,Company Owned,51 Great Russell Street,London,ENG,GB,WC1B 3BA,2074044939,GMT+0:00 Europe/London,-0.125658,51.518288,,51 Great Russell Street WC1B 3BA,,,,,,,51 Great Russell Street WC1B 3BA,51.518288,-0.125658
Starbucks,16660-174224,SSP Liverpool St Broadgate Link,Licensed,59 Broadgate Link,London,ENG,GB,EC2M 7PY,,GMT+0:00 Europe/London,-0.083752,51.519057,,59 Broadgate Link EC2M 7PY,,,,,,,59 Broadgate Link EC2M 7PY,51.519057,-0.083752
Starbucks,12436-92761,White City - Vivacity,Company Owned,"201 Wood Lane, Media Village, Kensington High St.",London,ENG,GB,W12 7TU,2087429326,GMT+0:00 Europe/London,-0.227219,51.513214,,"201 Wood Lane, Media Village, Kensington High St. W12 7TU",,,,,,,"201 Wood Lane, Media Village, Kensington High St. W12 7TU",51.513214,-0.227219
Starbucks,12004-10855,Kensington High Street,Company Owned,"25a Kensington High St, J Sainsbury's plc",London,ENG,GB,W8 5NP,2079375446,GMT+0:00 Europe/London,-0.205002,51.497137,,"25a Kensington High St, J Sainsbury's plc W8 5NP",,,,,,,"25a Kensington High St, J Sainsbury's plc W8 5NP",51.497137,-0.205002
Starbucks,12300-65543,Hendon - Sainsbury's,Company Owned,"Hyde Estate Road, Starbucks c/o Sainsbury's, Starbucks c/o Sainsbury's",London,ENG,GB,NW9 6JX,2082058928,GMT+0:00 Europe/London,-0.244471,51.582029,,"Hyde Estate Road, Starbucks c/o Sainsbury's, Starbucks c/o Sainsbury's NW9 6JX",,,,,,,"Hyde Estate Road, Starbucks c/o Sainsbury's, Starbucks c/o Sainsbury's NW9 6JX",51.582029,-0.244471
Starbucks,12277-56620,Winchmore Hill - Sainsbury's,Company Owned,"681 Greens Lane, Winchmore Hill",London,ENG,GB,N21 3RS,2083643726,GMT+0:00 Europe/London,-0.09856,51.629557,,"681 Greens Lane, Winchmore Hill N21 3RS",,,,,,,"681 Greens Lane, Winchmore Hill N21 3RS",51.629557,-0.09856
Starbucks,12202-23649,Leadenhall Street,Company Owned,11 Leadenhall Street,London,ENG,GB,EC3V 1LP,2076231745,GMT+0:00 Europe/London,-0.082978,51.513233,,11 Leadenhall Street EC3V 1LP,,,,,,,11 Leadenhall Street EC3V 1LP,51.513233,-0.082978
Starbucks,12374-78721,High Holborn,Company Owned,90 High Holborn,London,ENG,GB,WC1V 6LJ,2072421598,GMT+0:00 Europe/London,-0.1181,51.518152,,90 High Holborn WC1V 6LJ,,,,,,,90 High Holborn WC1V 6LJ,51.518152,-0.1181
Starbucks,25409-240951,Fox Excel,Franchise,"Warehouse K, ExCel Centre, 2 Western Gateway",London,ENG,GB,E16 1DR,0207 4768168,GMT+0:00 Europe/London,0.025478,51.508784,,"Warehouse K, ExCel Centre, 2 Western Gateway E16 1DR",,,,,,,"Warehouse K, ExCel Centre, 2 Western Gateway E16 1DR",51.508784,0.025478
Starbucks,12656-102946,St Martins Lane,Company Owned,99 St Martins Lane,London,ENG,GB,WC2N 4AS,2072405789,GMT+0:00 Europe/London,-0.127128,51.510486,,99 St Martins Lane WC2N 4AS,,,,,,,99 St Martins Lane WC2N 4AS,51.510486,-0.127128
Starbucks,12796-140418,Baker Street (58),Company Owned,58 Baker Street,London,ENG,GB,W1U 7DD,2074863968,GMT+0:00 Europe/London,-0.155835,51.519052,,58 Baker Street W1U 7DD,,,,,,,58 Baker Street W1U 7DD,51.519052,-0.155835
Starbucks,25631-241705,Upper St Martins Lane,Company Owned,5 Upper ST Martins Lane,London,ENG,GB,WC2H 9EA,2072408591,GMT+0:00 Europe/London,-0.127584,51.512434,,5 Upper ST Martins Lane WC2H 9EA,,,,,,,5 Upper ST Martins Lane WC2H 9EA,51.512434,-0.127584
Starbucks,12151-19263,Fulham - Chels&West Hospital,Company Owned,"369 Fulham Road, Unit A and B",London,ENG,GB,SW10 9TR,2077951772,GMT+0:00 Europe/London,-0.181994,51.484905,,"369 Fulham Road, Unit A and B SW10 9TR",,,,,,,"369 Fulham Road, Unit A and B SW10 9TR",51.484905,-0.181994
Starbucks,12205-34522,Holland Park Avenue,Company Owned,76 - 78 Holland Park Avenue,London,ENG,GB,W11 3RB,2072297357,GMT+0:00 Europe/London,-0.205763,51.507318,,76 - 78 Holland Park Avenue W11 3RB,,,,,,,76 - 78 Holland Park Avenue W11 3RB,51.507318,-0.205763
Starbucks,22891-225945,Knightsbridge Underground,Franchise,"New Retail Unit, Knightsbridge Underground Station",London,ENG,GB,SW3 1ED,,GMT+0:00 Europe/London,-0.16096,51.501275,,"New Retail Unit, Knightsbridge Underground Station SW3 1ED",,,,,,,"New Retail Unit, Knightsbridge Underground Station SW3 1ED",51.501275,-0.16096
Starbucks,12318-47400,Hampstead - South End Road,Company Owned,"5-7 South End Road, South Hampstead",London,ENG,GB,NW3 2PT,2074314744,GMT+0:00 Europe/London,-0.165863,51.554207,,"5-7 South End Road, South Hampstead NW3 2PT",,,,,,,"5-7 South End Road, South Hampstead NW3 2PT",51.554207,-0.165863
Starbucks,12779-140491,Palmers Green - Green Lanes,Company Owned,"305-307 Green Lanes, London, Heathrow Express Area",London,ENG,GB,N13 4YB,2088862587,GMT+0:00 Europe/London,-0.10899,51.618023,,"305-307 Green Lanes, London, Heathrow Express Area N13 4YB",,,,,,,"305-307 Green Lanes, London, Heathrow Express Area N13 4YB",51.618023,-0.10899
Starbucks,12541-95604,Paddington Station - Mezzanine,Company Owned,"Heathrow Express Area, Unit 3 - The Lawns., The Brunswick Centre",London,ENG,GB,W2 1AE,2077067268,GMT+0:00 Europe/London,-0.177011,51.516711,,"Heathrow Express Area, Unit 3 - The Lawns., The Brunswick Centre W2 1AE",,,,,,,"Heathrow Express Area, Unit 3 - The Lawns., The Brunswick Centre W2 1AE",51.516711,-0.177011
Starbucks,12420-88040,Brunswick Centre,Company Owned,"Brunswick Centre, Unit 7",London,ENG,GB,WC1N 1AW,2078370567,GMT+0:00 Europe/London,-0.123372,51.523912,,"Brunswick Centre, Unit 7 WC1N 1AW",,,,,,,"Brunswick Centre, Unit 7 WC1N 1AW",51.523912,-0.123372
Starbucks,3607-145624,SSP Liverpoll St Bishopsgate,Licensed,Lower Concourse,London,ENG,GB,EC2M 7QH,2072470438,GMT+0:00 Europe/London,-0.082878,51.517894,,Lower Concourse EC2M 7QH,,,,,,,Lower Concourse EC2M 7QH,51.517894,-0.082878
Starbucks,12162-22021,Euston Tower,Company Owned,"Unit 1A Euston Tower Podium, Regents Place",London,ENG,GB,NW1 3DP,2073887651,GMT+0:00 Europe/London,-0.139332,51.525125,,"Unit 1A Euston Tower Podium, Regents Place NW1 3DP",,,,,,,"Unit 1A Euston Tower Podium, Regents Place NW1 3DP",51.525125,-0.139332
Starbucks,12898-137731,Surrey Quays Shopping Ctr - Ground,Company Owned,"13-15 Surrey Quays, Unit B",London,ENG,GB,SE16 7LL,020 7231 4939,GMT+0:00 Europe/London,-0.046501,51.4949,,"13-15 Surrey Quays, Unit B SE16 7LL",,,,,,,"13-15 Surrey Quays, Unit B SE16 7LL",51.4949,-0.046501
Starbucks,12376-78821,Wardour Street/Brewer Street,Company Owned,"60 - 66 Wardour Street, Ground Floor",London,ENG,GB,W1F 0TA,2072874834,GMT+0:00 Europe/London,-0.133306,51.512783,,"60 - 66 Wardour Street, Ground Floor W1F 0TA",,,,,,,"60 - 66 Wardour Street, Ground Floor W1F 0TA",51.512783,-0.133306
Starbucks,12291-47983,Cavendish Square,Company Owned,"33 Cavendish Square, Unit 1",London,ENG,GB,W1G 0PW,2076290191,GMT+0:00 Europe/London,-0.14413,51.516012,,"33 Cavendish Square, Unit 1 W1G 0PW",,,,,,,"33 Cavendish Square, Unit 1 W1G 0PW",51.516012,-0.14413
Starbucks,12119-11947,Golders Green,Company Owned,"7-9 Golders Green Road, The Torrington Public House",London,ENG,GB,NW11 8DY,2084584218,GMT+0:00 Europe/London,-0.195932,51.571763,,"7-9 Golders Green Road, The Torrington Public House NW11 8DY",,,,,,,"7-9 Golders Green Road, The Torrington Public House NW11 8DY",51.571763,-0.195932
Starbucks,12601-98270,North Finchley - High Road,Company Owned,"811 High Road, Unit A, The Torrington Public House",London,ENG,GB,N12 8JR,2084927765,GMT+0:00 Europe/London,-73.120466,41.800969,,"811 High Road, Unit A, The Torrington Public House N12 8JR",,,,,,,"811 High Road, Unit A, The Torrington Public House N12 8JR",41.800969,-73.120466
Starbucks,12639-101079,Vauxhall - Lambeth Road,Company Owned,"2 South Lambeth Road, Vauxhall",London,ENG,GB,SW8 1SP,2075871914,GMT+0:00 Europe/London,-0.123583,51.485567,,"2 South Lambeth Road, Vauxhall SW8 1SP",,,,,,,"2 South Lambeth Road, Vauxhall SW8 1SP",51.485567,-0.123583
Starbucks,12197-33141,Cheapside,Company Owned,"143-144 Cheapside, Unit 3",London,ENG,GB,EC2V 6BJ,2076004711,GMT+0:00 Europe/London,-0.096022,51.51458,,"143-144 Cheapside, Unit 3 EC2V 6BJ",,,,,,,"143-144 Cheapside, Unit 3 EC2V 6BJ",51.51458,-0.096022
Starbucks,12404-85703,Embankment,Company Owned,1-3 Villiers street,London,ENG,GB,WC2N 6NN,2079300649,GMT+0:00 Europe/London,-0.122839,51.507451,,1-3 Villiers street WC2N 6NN,,,,,,,1-3 Villiers street WC2N 6NN,51.507451,-0.122839
Starbucks,12085-11295,Hampstead - West End Lane,Company Owned,201A West End Lane,London,ENG,GB,NW6 2LJ,2073729614,GMT+0:00 Europe/London,-0.191262,51.547754,,201A West End Lane NW6 2LJ,,,,,,,201A West End Lane NW6 2LJ,51.547754,-0.191262
Starbucks,12078-11926,Villiers Street,Company Owned,"14 Villiers Street, Unit 14, Whiteleys of Bayswater",London,ENG,GB,WC2N 6NQ,2079302129,GMT+0:00 Europe/London,-0.123989,51.5081,,"14 Villiers Street, Unit 14, Whiteleys of Bayswater WC2N 6NQ",,,,,,,"14 Villiers Street, Unit 14, Whiteleys of Bayswater WC2N 6NQ",51.5081,-0.123989
Starbucks,12065-10876,Bayswater - Whiteleys,Company Owned,"Unit 217,   2nd Floor, Unit 217 (2nd Floor)",London,ENG,GB,W2 4BS,2077271939,GMT+0:00 Europe/London,-0.187927,51.513289,,"Unit 217,   2nd Floor, Unit 217 (2nd Floor) W2 4BS",,,,,,,"Unit 217,   2nd Floor, Unit 217 (2nd Floor) W2 4BS",51.513289,-0.187927
Starbucks,28836-251454,Victoria Coach Station,Franchise,"Unit 2.1, departures terminal gate 11",London,ENG,GB,SW1W 9TP,020 7730 2306,GMT+0:00 Europe/London,-0.148363,51.492375,,"Unit 2.1, departures terminal gate 11 SW1W 9TP",,,,,,,"Unit 2.1, departures terminal gate 11 SW1W 9TP",51.492375,-0.148363
Starbucks,12068-11195,Langham Place W1,Company Owned,1 - 2  Langham Place,London,ENG,GB,W1B 3DE,2075806199,GMT+0:00 Europe/London,-0.142687,51.517545,,1 - 2  Langham Place W1B 3DE,,,,,,,1 - 2  Langham Place W1B 3DE,51.517545,-0.142687
Starbucks,12072-11115,Clapham - Northcote Road,Company Owned,33/38 Northcote Road,London,ENG,GB,SW11 1NZ,2073502887,GMT+0:00 Europe/London,-0.166684,51.459561,,33/38 Northcote Road SW11 1NZ,,,,,,,33/38 Northcote Road SW11 1NZ,51.459561,-0.166684
Starbucks,12153-17957,Minories,Company Owned,48-50 Minories,London,ENG,GB,EC3N 1JJ,2077023428,GMT+0:00 Europe/London,-0.075052,51.511484,,48-50 Minories EC3N 1JJ,,,,,,,48-50 Minories EC3N 1JJ,51.511484,-0.075052
Starbucks,15880-162205,SSP Waterloo Main Store,Licensed,"12 A Mepham Street, Main concourse opposite platform 19/20, The Coronium Cafe",London,ENG,GB,SE1 8SE,,GMT+0:00 Europe/London,-0.113543,51.503739,,"12 A Mepham Street, Main concourse opposite platform 19/20, The Coronium Cafe SE1 8SE",,,,,,,"12 A Mepham Street, Main concourse opposite platform 19/20, The Coronium Cafe SE1 8SE",51.503739,-0.113543
Starbucks,12275-63746,Docklands - St Katharine's Dock,Company Owned,Cloister Walk,London,ENG,GB,E1 9LD,2076801125,GMT+0:00 Europe/London,-0.073486,51.5075,,Cloister Walk E1 9LD,,,,,,,Cloister Walk E1 9LD,51.5075,-0.073486
Starbucks,18562-192607,SSP King's Cross Kiosk,Licensed,Northern Ticket Hall (Unit 2),London,ENG,GB,NW1 2AL,,GMT+0:00 Europe/London,-0.129214,51.528374,,Northern Ticket Hall (Unit 2) NW1 2AL,,,,,,,Northern Ticket Hall (Unit 2) NW1 2AL,51.528374,-0.129214
Starbucks,27845-248888,London Cineworld Fulham Road,Licensed,"Cineworld Cinemas, 142 Fulham Road, West One Centre",London,ENG,GB,SW10 9QR,,GMT+0:00 Europe/London,-0.179493,51.487135,,"Cineworld Cinemas, 142 Fulham Road, West One Centre SW10 9QR",,,,,,,"Cineworld Cinemas, 142 Fulham Road, West One Centre SW10 9QR",51.487135,-0.179493
Starbucks,12808-140544,West One Centre,Company Owned,"381 Oxford Street, Unit G13",London,ENG,GB,W1C 2JS,020 76295404,GMT+0:00 Europe/London,-0.149302,51.513825,,"381 Oxford Street, Unit G13 W1C 2JS",,,,,,,"381 Oxford Street, Unit G13 W1C 2JS",51.513825,-0.149302
Starbucks,12315-62403,Euston Road,Company Owned,93 Euston Road,London,ENG,GB,NW1 2RA,2073872505,GMT+0:00 Europe/London,-0.12711,51.52846,,93 Euston Road NW1 2RA,,,,,,,93 Euston Road NW1 2RA,51.52846,-0.12711
Starbucks,12685-104385,Whitechapel Road,Company Owned,"45 Whitechapel Road, Unit 5",London,ENG,GB,E1 1DU,2072473729,GMT+0:00 Europe/London,-0.068443,51.516951,,"45 Whitechapel Road, Unit 5 E1 1DU",,,,,,,"45 Whitechapel Road, Unit 5 E1 1DU",51.516951,-0.068443
Starbucks,12437-92928,Maida Vale - Randolph Ave,Company Owned,"168-170 Randolph Avenue, Maidavale",London,ENG,GB,W9 1PE,2073725918,GMT+0:00 Europe/London,-0.186177,51.530223,,"168-170 Randolph Avenue, Maidavale W9 1PE",,,,,,,"168-170 Randolph Avenue, Maidavale W9 1PE",51.530223,-0.186177
Starbucks,12212-38581,Brushfield Street,Company Owned,8-10 Brushfield Street,London,ENG,GB,E1 6AN,2072479087,GMT+0:00 Europe/London,-0.078616,51.518854,,8-10 Brushfield Street E1 6AN,,,,,,,8-10 Brushfield Street E1 6AN,51.518854,-0.078616
Starbucks,16025-157744,Stratford - Westfield Lower Ground,Company Owned,"Unit SU0038, Westfield Stratford",London,ENG,GB,E15,2085346698,GMT+0:00 Europe/London,-0.005004,51.542893,,"Unit SU0038, Westfield Stratford E15",,,,,,,"Unit SU0038, Westfield Stratford E15",51.542893,-0.005004
Starbucks,12752-140612,Raynes Park,Company Owned,"Raynes Park, 1,3,5 Station Buildings",London,ENG,GB,SW20 0JY,2089712036,GMT+0:00 Europe/London,-0.23002,51.409376,,"Raynes Park, 1,3,5 Station Buildings SW20 0JY",,,,,,,"Raynes Park, 1,3,5 Station Buildings SW20 0JY",51.409376,-0.23002
Starbucks,12297-55099,Southfields - Replingham Road,Company Owned,"11 Replingham Road, Southfields, Notting Hill Gate",London,ENG,GB,SW18 5LT,2088714305,GMT+0:00 Europe/London,-0.205725,51.444878,,"11 Replingham Road, Southfields, Notting Hill Gate SW18 5LT",,,,,,,"11 Replingham Road, Southfields, Notting Hill Gate SW18 5LT",51.444878,-0.205725
Starbucks,12025-10403,Pembridge Road,Company Owned,26 Pembridge Road,London,ENG,GB,W11 3HL,2072434313,GMT+0:00 Europe/London,-0.197085,51.509802,,26 Pembridge Road W11 3HL,,,,,,,26 Pembridge Road W11 3HL,51.509802,-0.197085
Starbucks,47373-254294,"Uxbridge Road, Ealing Common",Franchise,"433-435 Uxbridge Road, Ealing Common",London,ENG,GB,W5 3NT,,GMT+0:00 Europe/London,-0.287258,51.509913,,"433-435 Uxbridge Road, Ealing Common W5 3NT",,,,,,,"433-435 Uxbridge Road, Ealing Common W5 3NT",51.509913,-0.287258
Starbucks,12158-22023,Belsize Park - Englands Lane,Company Owned,"57 Englands Lane, Belsize Park",London,ENG,GB,NW3 4YD,2075861777,GMT+0:00 Europe/London,-0.162509,51.545411,,"57 Englands Lane, Belsize Park NW3 4YD",,,,,,,"57 Englands Lane, Belsize Park NW3 4YD",51.545411,-0.162509
Starbucks,29850-255544,Stratford - Westfield - Kiosk,Company Owned,"Unit K15 , Olympic Park, Montfichet Road",London,ENG,GB,E20 1EJ,2085224642,GMT+0:00 Europe/London,-0.005772,51.543598,,"Unit K15 , Olympic Park, Montfichet Road E20 1EJ",,,,,,,"Unit K15 , Olympic Park, Montfichet Road E20 1EJ",51.543598,-0.005772
Starbucks,12215-33143,Sun Street,Company Owned,"31 - 33 Sun Street, Broadgate",London,ENG,GB,EC2M 2PY,2072475118,GMT+0:00 Europe/London,-0.083636,51.520015,,"31 - 33 Sun Street, Broadgate EC2M 2PY",,,,,,,"31 - 33 Sun Street, Broadgate EC2M 2PY",51.520015,-0.083636
Starbucks,12424-88680,Tottenham Court Road/Tottenham St,Company Owned,77 Tottenham Court Road,London,ENG,GB,W1T 2HQ,2074364170,GMT+0:00 Europe/London,-0.134765,51.520681,,77 Tottenham Court Road W1T 2HQ,,,,,,,77 Tottenham Court Road W1T 2HQ,51.520681,-0.134765
Starbucks,16031-166244,Drapers Gardens,Licensed,12 Copthall Avenue,London,ENG,GB,EC2N 2DL,207432001,GMT+0:00 Europe/London,-0.087595,51.516108,,12 Copthall Avenue EC2N 2DL,,,,,,,12 Copthall Avenue EC2N 2DL,51.516108,-0.087595
Starbucks,12406-85705,City Thameslink - Fleet Place,Company Owned,"3 Fleet Place, Unit 2",London,ENG,GB,EC4M 7RA,2072482220,GMT+0:00 Europe/London,-0.103296,51.516515,,"3 Fleet Place, Unit 2 EC4M 7RA",,,,,,,"3 Fleet Place, Unit 2 EC4M 7RA",51.516515,-0.103296
Starbucks,23578-231425,SSP Waterloo East,Licensed,"Waterloo East Station, Platform B/C, Sandell Street, Ashdown House",London,ENG,GB,SE1 8NH,,GMT+0:00 Europe/London,-0.109147,51.50408,,"Waterloo East Station, Platform B/C, Sandell Street, Ashdown House SE1 8NH",,,,,,,"Waterloo East Station, Platform B/C, Sandell Street, Ashdown House SE1 8NH",51.50408,-0.109147
Starbucks,12014-10339,Victoria Street & Horwick Place,Company Owned,137 Victoria Street,London,ENG,GB,SW1E 6RD,2072335170,GMT+0:00 Europe/London,-0.138855,51.496949,,137 Victoria Street SW1E 6RD,,,,,,,137 Victoria Street SW1E 6RD,51.496949,-0.138855
Starbucks,12751-140489,Vigo Street,Company Owned,"6A Vigo Street, London",London,ENG,GB,W1S 3HF,2077347632,GMT+0:00 Europe/London,-0.13922,51.510347,,"6A Vigo Street, London W1S 3HF",,,,,,,"6A Vigo Street, London W1S 3HF",51.510347,-0.13922
Starbucks,12711-105805,Colliers Wood - Tandam Centre,Company Owned,"Colliers Wood, Unit 10 Tandem Centre",London,ENG,GB,SW19 2PT,2086872628,GMT+0:00 Europe/London,-0.177871,51.413573,,"Colliers Wood, Unit 10 Tandem Centre SW19 2PT",,,,,,,"Colliers Wood, Unit 10 Tandem Centre SW19 2PT",51.413573,-0.177871
Starbucks,12360-75881,Kew - Station Parade,Company Owned,"Station parade, Kew",London,ENG,GB,TW9 3PS,2083327337,GMT+0:00 Europe/London,-0.286107,51.477235,,"Station parade, Kew TW9 3PS",,,,,,,"Station parade, Kew TW9 3PS",51.477235,-0.286107
Starbucks,12962-142504,Great Marlborough St,Company Owned,"London - Great Marlborough Street  (3-4), Unit 36",LONDON,ENG,GB,W1F 7HH,2074341664,GMT+0:00 Europe/London,-0.137519,51.514885,,"London - Great Marlborough Street  (3-4), Unit 36 W1F 7HH",,,,,,,"London - Great Marlborough Street  (3-4), Unit 36 W1F 7HH",51.514885,-0.137519
Starbucks,12371-78701,Hammersmith Broadway West,Company Owned,"36 Broadway Shopping Centre, Hammersmith Broadway",London,ENG,GB,W6 9YE,2087486685,GMT+0:00 Europe/London,-0.224173,51.492325,,"36 Broadway Shopping Centre, Hammersmith Broadway W6 9YE",,,,,,,"36 Broadway Shopping Centre, Hammersmith Broadway W6 9YE",51.492325,-0.224173
Starbucks,15640-159226,Westminster - Broadway,Company Owned,"17 Broadway, Westminister",London,ENG,GB,SW1H 0AZ,2077993371,GMT+0:00 Europe/London,-0.133813,51.498918,,"17 Broadway, Westminister SW1H 0AZ",,,,,,,"17 Broadway, Westminister SW1H 0AZ",51.498918,-0.133813
Starbucks,20726-208169,Cineworld Enfield,Licensed,"Cineworld Cinemas Southbury Leisure Park, Southbury Road (208), Enfield",London,ENG,GB,EN1 1YQ,,GMT+0:00 Europe/London,-0.060884,51.650185,,"Cineworld Cinemas Southbury Leisure Park, Southbury Road (208), Enfield EN1 1YQ",,,,,,,"Cineworld Cinemas Southbury Leisure Park, Southbury Road (208), Enfield EN1 1YQ",51.650185,-0.060884
Starbucks,6145-149765,South Kensington - Old Brompton Rd,Company Owned,19 Old Brompton Road,London,ENG,GB,SW7 3HZ,2072250921,GMT+0:00 Europe/London,-0.174427,51.493533,,19 Old Brompton Road SW7 3HZ,,,,,,,19 Old Brompton Road SW7 3HZ,51.493533,-0.174427
Starbucks,12419-87540,Hammersmith Road,Company Owned,"200 Hammersmith Road, Berkeley Square",London,ENG,GB,W6 7DL,2087419397,GMT+0:00 Europe/London,-0.221439,51.49338,,"200 Hammersmith Road, Berkeley Square W6 7DL",,,,,,,"200 Hammersmith Road, Berkeley Square W6 7DL",51.49338,-0.221439
Starbucks,12022-10382,Berkeley Street/Berkeley Square,Company Owned,27 Berkeley St,London,ENG,GB,W1X 5AD,2076295779,GMT+0:00 Europe/London,-0.144298,51.508821,,27 Berkeley St W1X 5AD,,,,,,,27 Berkeley St W1X 5AD,51.508821,-0.144298
Starbucks,12559-96360,Old Street - City Road,Company Owned,104-122 City Road,London,ENG,GB,EC1V 2NR,2072534069,GMT+0:00 Europe/London,-0.088121,51.526294,,104-122 City Road EC1V 2NR,,,,,,,104-122 City Road EC1V 2NR,51.526294,-0.088121
Starbucks,12398-85695,Chiswick - High Road/Belmont Road,Company Owned,376 Chiswick High road,London,ENG,GB,W4 5TF,2089946686,GMT+0:00 Europe/London,-0.264026,51.492678,,376 Chiswick High road W4 5TF,,,,,,,376 Chiswick High road W4 5TF,51.492678,-0.264026
Starbucks,12972-140949,London - Westfield - Lower Mall,Company Owned,Unit 1018a,London,ENG,GB,W12 7GE,2087499233,GMT+0:00 Europe/London,-0.223242,51.507202,,Unit 1018a W12 7GE,,,,,,,Unit 1018a W12 7GE,51.507202,-0.223242
Starbucks,12058-10406,Princes Street W1,Company Owned,22-23 Princes St,London,ENG,GB,W1B 2LY,2074958370,GMT+0:00 Europe/London,-0.142562,51.514392,,22-23 Princes St W1B 2LY,,,,,,,22-23 Princes St W1B 2LY,51.514392,-0.142562
Starbucks,12033-10380,Fulham Road,Company Owned,809 Fulham Road,London,ENG,GB,SW6 5HE,2073842494,GMT+0:00 Europe/London,-0.205441,51.475718,,809 Fulham Road SW6 5HE,,,,,,,809 Fulham Road SW6 5HE,51.475718,-0.205441
Starbucks,12013-10378,Parsons Green,Company Owned,44 - 48  New Kings Road,London,ENG,GB,SW6 4LS,2073719866,GMT+0:00 Europe/London,-0.200913,51.472651,,44 - 48  New Kings Road SW6 4LS,,,,,,,44 - 48  New Kings Road SW6 4LS,51.472651,-0.200913
Starbucks,12809-96661,Borough High Street/Borough Station,Company Owned,223-227 Borough High Street,London,ENG,GB,SE1 1JD,2074075464,GMT+0:00 Europe/London,-0.093185,51.501026,,223-227 Borough High Street SE1 1JD,,,,,,,223-227 Borough High Street SE1 1JD,51.501026,-0.093185
Starbucks,12650-102781,Tottenham Court Road/Capper St,Company Owned,175 Tottenham  Court Road,London,ENG,GB,W1T 7NU,2076374459,GMT+0:00 Europe/London,-0.135741,51.522342,,175 Tottenham  Court Road W1T 7NU,,,,,,,175 Tottenham  Court Road W1T 7NU,51.522342,-0.135741
Starbucks,26205-243830,Marble Arch,Company Owned,"1a York House, 26 Edgware Road",London,ENG,GB,W2 2EH,749589333,GMT+0:00 Europe/London,-0.161232,51.514173,,"1a York House, 26 Edgware Road W2 2EH",,,,,,,"1a York House, 26 Edgware Road W2 2EH",51.514173,-0.161232
Starbucks,23655-232444,SSP Euston,Licensed,"Euston Station, Unit 37, Barnby St",London,ENG,GB,NW1 2RT,,GMT+0:00 Europe/London,-0.132024,51.527961,,"Euston Station, Unit 37, Barnby St NW1 2RT",,,,,,,"Euston Station, Unit 37, Barnby St NW1 2RT",51.527961,-0.132024
Starbucks,12169-23184,Belgravia -  Pimlico Road,Company Owned,53-55 Pimlico Road,London,ENG,GB,SW1W 8NE,2072590747,GMT+0:00 Europe/London,-0.152893,51.490469,,53-55 Pimlico Road SW1W 8NE,,,,,,,53-55 Pimlico Road SW1W 8NE,51.490469,-0.152893
Starbucks,12280-59239,Berkeley Street,Company Owned,52 Berkeley St.,London,ENG,GB,W1J 8ET,2076294911,GMT+0:00 Europe/London,-0.142605,51.50742,,52 Berkeley St. W1J 8ET,,,,,,,52 Berkeley St. W1J 8ET,51.50742,-0.142605
Starbucks,12339-60039,Westbourne Grove,Company Owned,96 Westboune Grove,London,ENG,GB,W2 5RT,2072436990,GMT+0:00 Europe/London,-0.193851,51.515374,,96 Westboune Grove W2 5RT,,,,,,,96 Westboune Grove W2 5RT,51.515374,-0.193851
Starbucks,3191-145067,SSP Wimbledon,Licensed,"Platform 7/8, The Bridge",London,ENG,GB,SW19 7NE,,GMT+0:00 Europe/London,-0.207637,51.42116,,"Platform 7/8, The Bridge SW19 7NE",,,,,,,"Platform 7/8, The Bridge SW19 7NE",51.42116,-0.207637
Starbucks,12421-88320,Paddington Central - Sheldon Square,Company Owned,"15 Sheldon Square, Paddington Central Kiosk",London,ENG,GB,W2 6PY,2072897381,GMT+0:00 Europe/London,-0.179558,51.51946,,"15 Sheldon Square, Paddington Central Kiosk W2 6PY",,,,,,,"15 Sheldon Square, Paddington Central Kiosk W2 6PY",51.51946,-0.179558
Starbucks,12114-12027,Baker Street/Porter Street,Company Owned,126 Baker Street,London,ENG,GB,W1M  1FH,2072245805,GMT+0:00 Europe/London,-0.157094,51.521593,,126 Baker Street W1M  1FH,,,,,,,126 Baker Street W1M  1FH,51.521593,-0.157094
Starbucks,12071-10731,Chelsea - Kings Road/Shawfield St,Company Owned,123a Kings Road,London,ENG,GB,SW3 4PL,2073764678,GMT+0:00 Europe/London,-0.166067,51.488388,,123a Kings Road SW3 4PL,,,,,,,123a Kings Road SW3 4PL,51.488388,-0.166067
Starbucks,12286-60079,Strand,Company Owned,442 Strand,London,ENG,GB,WC2R 0QU,2078366850,GMT+0:00 Europe/London,-0.125368,51.508877,,442 Strand WC2R 0QU,,,,,,,442 Strand WC2R 0QU,51.508877,-0.125368
Starbucks,12560-96361,Wandsworth Bridge Road,Company Owned,"95-96 Wandsworth Bridge Road, Wandsworth",London,ENG,GB,SW6 2TD,2077317861,GMT+0:00 Europe/London,-0.191732,51.47379,,"95-96 Wandsworth Bridge Road, Wandsworth SW6 2TD",,,,,,,"95-96 Wandsworth Bridge Road, Wandsworth SW6 2TD",51.47379,-0.191732
Starbucks,12317-59679,Islington - Upper Street,Company Owned,"30 Upper St, Islington, O2 Centre",London,ENG,GB,N1 0PN,2073540179,GMT+0:00 Europe/London,-0.105305,51.534527,,"30 Upper St, Islington, O2 Centre N1 0PN",,,,,,,"30 Upper St, Islington, O2 Centre N1 0PN",51.534527,-0.105305
Starbucks,12265-46759,Swiss Cottage - 02 Centre,Company Owned,"255 Finchley Road, Swiss Cottage 02 Centre, Burleigh House",London,ENG,GB,NW3 6LU,2074318233,GMT+0:00 Europe/London,-0.181972,51.548038,,"255 Finchley Road, Swiss Cottage 02 Centre, Burleigh House NW3 6LU",,,,,,,"255 Finchley Road, Swiss Cottage 02 Centre, Burleigh House NW3 6LU",51.548038,-0.181972
Starbucks,12039-10589,Strand/Savoy Street,Company Owned,"Unit2 Burleigh House, 355-359 The Strand",London,ENG,GB,WC2R 0HS,2078365166,GMT+0:00 Europe/London,-0.119957,51.511196,,"Unit2 Burleigh House, 355-359 The Strand WC2R 0HS",,,,,,,"Unit2 Burleigh House, 355-359 The Strand WC2R 0HS",51.511196,-0.119957
Starbucks,16594-165226,Aramark Canary Wharf,Licensed,"25 Bank Street, Canary Wharf, 7th Floor",London,ENG,GB,E14 5JP,2034931115,GMT+0:00 Europe/London,-0.020706,51.503016,,"25 Bank Street, Canary Wharf, 7th Floor E14 5JP",,,,,,,"25 Bank Street, Canary Wharf, 7th Floor E14 5JP",51.503016,-0.020706
Starbucks,18146-188344,Harewood Place,Company Owned,13b Hanover Square,London,ENG,GB,W1S 1HN,2074953936,GMT+0:00 Europe/London,-0.143926,51.514597,,13b Hanover Square W1S 1HN,,,,,,,13b Hanover Square W1S 1HN,51.514597,-0.143926
Starbucks,12198-38259,South Bank - County Hall,Company Owned,"Belvedere Road, 3C and 3D, East Block County Hall",London,ENG,GB,SE1 7GQ,2079284557,GMT+0:00 Europe/London,-0.117661,51.50199,,"Belvedere Road, 3C and 3D, East Block County Hall SE1 7GQ",,,,,,,"Belvedere Road, 3C and 3D, East Block County Hall SE1 7GQ",51.50199,-0.117661
Starbucks,12056-10405,Clapham - Abbeville Road,Company Owned,39 Abbeville Road,London,ENG,GB,SW4 9JX,2086734004,GMT+0:00 Europe/London,-0.140252,51.454193,,39 Abbeville Road SW4 9JX,,,,,,,39 Abbeville Road SW4 9JX,51.454193,-0.140252
Starbucks,12248-55179,Waterloo Station Lower Entrance,Company Owned,Waterloo Station,London,ENG,GB,SE1 7LY,2079284920,GMT+0:00 Europe/London,-0.112305,51.503165,,Waterloo Station SE1 7LY,,,,,,,Waterloo Station SE1 7LY,51.503165,-0.112305
Starbucks,17571-183529,SSP Liverpool St Kiosk,Licensed,Bishopsgate Entrance,London,ENG,GB,EC2M 7QH,,GMT+0:00 Europe/London,-0.081059,51.516798,,Bishopsgate Entrance EC2M 7QH,,,,,,,Bishopsgate Entrance EC2M 7QH,51.516798,-0.081059
Starbucks,5189-148827,Tower Thistle Hotel London,Licensed,St. Katherine's Way,London,ENG,GB,E1W 1LD,207 481  2575,GMT+0:00 Europe/London,-0.072696,51.506692,,St. Katherine's Way E1W 1LD,,,,,,,St. Katherine's Way E1W 1LD,51.506692,-0.072696
Starbucks,49661-270226,Sainsbury Nine Elms,Company Owned,62 Wandsworth Road,London,ENG,GB,SW8 2LF,20076221726,GMT+0:00 Europe/London,-0.128863,51.480943,,62 Wandsworth Road SW8 2LF,,,,,,,62 Wandsworth Road SW8 2LF,51.480943,-0.128863
Starbucks,12747-140464,Canary Wharf - South Collonade/DLR,Company Owned,"South Collonade, Canary Wharf, Brent Cross Shopping Centre",London,ENG,GB,E14 4QT,2075191053,GMT+0:00 Europe/London,-0.021829,51.504874,,"South Collonade, Canary Wharf, Brent Cross Shopping Centre E14 4QT",,,,,,,"South Collonade, Canary Wharf, Brent Cross Shopping Centre E14 4QT",51.504874,-0.021829
Starbucks,12186-32120,Brent Cross Shopping Ctr - Lower,Company Owned,"East Court Cafe, Brent Cross Shopping Centre",London,ENG,GB,NW4 3FG,2082034605,GMT+0:00 Europe/London,-0.222672,51.576602,,"East Court Cafe, Brent Cross Shopping Centre NW4 3FG",,,,,,,"East Court Cafe, Brent Cross Shopping Centre NW4 3FG",51.576602,-0.222672
Starbucks,24321-237126,London - Greenwich Shopping Park,Franchise,"Unit D, 1C Greenwich Shopping Park, Bugsbys Way, Charlton",London,ENG,GB,SE7 7ST,,GMT+0:00 Europe/London,0.024774,51.487358,,"Unit D, 1C Greenwich Shopping Park, Bugsbys Way, Charlton SE7 7ST",,,,,,,"Unit D, 1C Greenwich Shopping Park, Bugsbys Way, Charlton SE7 7ST",51.487358,0.024774
Starbucks,12509-94369,Queens Park,Company Owned,89 Salusbury Road,London,ENG,GB,NW6 6NN,2076247738,GMT+0:00 Europe/London,-0.205168,51.535867,,89 Salusbury Road NW6 6NN,,,,,,,89 Salusbury Road NW6 6NN,51.535867,-0.205168
Starbucks,12005-10346,James Street,Company Owned,"14 James Street, St. Katherine's House",London,ENG,GB,W1U 1EF,2074956680,GMT+0:00 Europe/London,-0.150334,51.514681,,"14 James Street, St. Katherine's House W1U 1EF",,,,,,,"14 James Street, St. Katherine's House W1U 1EF",51.514681,-0.150334
Starbucks,12165-19479,Kingsway,Company Owned,"10 Kingsway, Unit B2; St Catherines House",London,ENG,GB,WC2B 6LH,2078314661,GMT+0:00 Europe/London,-0.117485,51.513923,,"10 Kingsway, Unit B2; St Catherines House WC2B 6LH",,,,,,,"10 Kingsway, Unit B2; St Catherines House WC2B 6LH",51.513923,-0.117485
Starbucks,12891-137726,West Wickham - High Street,Company Owned,"11-73, HIGH STREET, WEST WICKHAM - HIGH STREET",LONDON,ENG,GB,BR4 0LS,2087774214,GMT+0:00 Europe/London,-0.018308,51.376313,,"11-73, HIGH STREET, WEST WICKHAM - HIGH STREET BR4 0LS",,,,,,,"11-73, HIGH STREET, WEST WICKHAM - HIGH STREET BR4 0LS",51.376313,-0.018308
Starbucks,12395-84602,Highbury Corner,Company Owned,"250 Upper Street, Islington",London,ENG,GB,N1 1RU,2073596775,GMT+0:00 Europe/London,-0.10348,51.54542,,"250 Upper Street, Islington N1 1RU",,,,,,,"250 Upper Street, Islington N1 1RU",51.54542,-0.10348
Starbucks,12157-22022,Greenwich - Cutty Sark,Company Owned,54-56 Greenwich Church St,London,ENG,GB,SE10 9BL,2088589992,GMT+0:00 Europe/London,-0.009848,51.482131,,54-56 Greenwich Church St SE10 9BL,,,,,,,54-56 Greenwich Church St SE10 9BL,51.482131,-0.009848
Starbucks,12195-33460,Camden - Parkway,Company Owned,"4/6 Parkway, Camden, Unit SU2R",London,ENG,GB,NW1 7AA,2074857798,GMT+0:00 Europe/London,-0.143221,51.538937,,"4/6 Parkway, Camden, Unit SU2R NW1 7AA",,,,,,,"4/6 Parkway, Camden, Unit SU2R NW1 7AA",51.538937,-0.143221
Starbucks,12104-11922,Edgware Road,Company Owned,207 Edgware Road,London,ENG,GB,W2 1ES,2077064230,GMT+0:00 Europe/London,-0.169077,51.518952,,207 Edgware Road W2 1ES,,,,,,,207 Edgware Road W2 1ES,51.518952,-0.169077
Starbucks,12190-31019,High Holborn/Chancery Lane,Company Owned,37-39 High Holborn,London,ENG,GB,WC1V 6BG,2074046660,GMT+0:00 Europe/London,-0.113906,51.518394,,37-39 High Holborn WC1V 6BG,,,,,,,37-39 High Holborn WC1V 6BG,51.518394,-0.113906
Starbucks,12712-105806,Brompton Road,Company Owned,"44-48 Brompton Road, Unit 4a 44-58",London,ENG,GB,SW3 1BW,2075816035,GMT+0:00 Europe/London,-0.16264,51.500549,,"44-48 Brompton Road, Unit 4a 44-58 SW3 1BW",,,,,,,"44-48 Brompton Road, Unit 4a 44-58 SW3 1BW",51.500549,-0.16264
Starbucks,12211-34939,Gracechurch Street,Company Owned,"48 Gracechurch Street, Unit A",London,ENG,GB,EC3V 0EJ,2076263677,GMT+0:00 Europe/London,-0.085471,51.510878,,"48 Gracechurch Street, Unit A EC3V 0EJ",,,,,,,"48 Gracechurch Street, Unit A EC3V 0EJ",51.510878,-0.085471
Starbucks,1171-140696,Tower Place East - Lower Thames St,Company Owned,"3 Tower Place, East Building",London,ENG,GB,EC3R 5BT,2079291755,GMT+0:00 Europe/London,-0.079173,51.508476,,"3 Tower Place, East Building EC3R 5BT",,,,,,,"3 Tower Place, East Building EC3R 5BT",51.508476,-0.079173
Starbucks,12194-16874,New Bridge Street,Company Owned,30-34A New Bridge Street,London,ENG,GB,EC4V 6BJ,2073291928,GMT+0:00 Europe/London,-0.10385,51.51268,,30-34A New Bridge Street EC4V 6BJ,,,,,,,30-34A New Bridge Street EC4V 6BJ,51.51268,-0.10385
Starbucks,12353-74920,Chelsea - Sloane Avenue,Company Owned,65-71 Sloane Avenue,London,ENG,GB,SW3 3DH,2075815550,GMT+0:00 Europe/London,-0.165569,51.492017,,65-71 Sloane Avenue SW3 3DH,,,,,,,65-71 Sloane Avenue SW3 3DH,51.492017,-0.165569
Starbucks,12038-10588,St. John's Wood - High Street,Company Owned,"79 St Johns Wood High St & 1 Circus Road, St. John's Wood",London,ENG,GB,NW8 7NL,2075864365,GMT+0:00 Europe/London,-0.171398,51.53388,,"79 St Johns Wood High St & 1 Circus Road, St. John's Wood NW8 7NL",,,,,,,"79 St Johns Wood High St & 1 Circus Road, St. John's Wood NW8 7NL",51.53388,-0.171398
Starbucks,12352-74628,Westminster - Horseferry Road,Company Owned,"35 Horseferry Road, Unit 15 Great Minster Court",London,ENG,GB,SW1P 2AA,2078344449,GMT+0:00 Europe/London,-0.130435,51.494695,,"35 Horseferry Road, Unit 15 Great Minster Court SW1P 2AA",,,,,,,"35 Horseferry Road, Unit 15 Great Minster Court SW1P 2AA",51.494695,-0.130435
Starbucks,12027-10347,Bayswater - Queensway,Company Owned,47-49 Queensway,London,ENG,GB,W2 4QH,2073139515,GMT+0:00 Europe/London,-0.187618,51.511717,,47-49 Queensway W2 4QH,,,,,,,47-49 Queensway W2 4QH,51.511717,-0.187618
Starbucks,12268-63739,Fleet Street,Company Owned,150 Fleet Street,London,ENG,GB,EC4A 2DQ,2075836672,GMT+0:00 Europe/London,-0.107636,51.514363,,150 Fleet Street EC4A 2DQ,,,,,,,150 Fleet Street EC4A 2DQ,51.514363,-0.107636
Starbucks,18674-194126,SSP London Victoria Platform 2,Licensed,"Victoria Station, Platform 2 Unit 3B, 15 Victoria Street",London,ENG,GB,SW1W 0SH,,GMT+0:00 Europe/London,-0.143898,51.49521,,"Victoria Station, Platform 2 Unit 3B, 15 Victoria Street SW1W 0SH",,,,,,,"Victoria Station, Platform 2 Unit 3B, 15 Victoria Street SW1W 0SH",51.49521,-0.143898
Starbucks,12131-15517,Enfield - Church St,Company Owned,"7 Church St, Belsize Park",London,ENG,GB,EN2 6AF,2083644432,GMT+0:00 Europe/London,-0.08345,51.652289,,"7 Church St, Belsize Park EN2 6AF",,,,,,,"7 Church St, Belsize Park EN2 6AF",51.652289,-0.08345
Starbucks,12139-15893,Belsize Park - Haverstock Hill,Company Owned,"202 Haverstock Hill, Kingsway House, Grd Flr",London,ENG,GB,NW3 2AG,2077947378,GMT+0:00 Europe/London,-0.16506,51.55083,,"202 Haverstock Hill, Kingsway House, Grd Flr NW3 2AG",,,,,,,"202 Haverstock Hill, Kingsway House, Grd Flr NW3 2AG",51.55083,-0.16506
Starbucks,12040-10398,Kingsway/Great Queen Street,Company Owned,99 Kingsway,London,ENG,GB,WC2B 6QX,2074049229,GMT+0:00 Europe/London,-0.119867,51.516356,,99 Kingsway WC2B 6QX,,,,,,,99 Kingsway WC2B 6QX,51.516356,-0.119867
Starbucks,16888-176687,SSP King's Cross Main Concourse,Licensed,"Euston Road, Ground Concourse Unit 11a",London,ENG,GB,N1 9AL,,GMT+0:00 Europe/London,-0.132491,51.526777,,"Euston Road, Ground Concourse Unit 11a N1 9AL",,,,,,,"Euston Road, Ground Concourse Unit 11a N1 9AL",51.526777,-0.132491
Starbucks,18677-194125,SSP London Victoria Main Store,Licensed,"Victoria Station Frontage, Unit 38, 15 Victoria St",London,ENG,GB,SW1V 1JU,,GMT+0:00 Europe/London,-0.143122,51.494769,,"Victoria Station Frontage, Unit 38, 15 Victoria St SW1V 1JU",,,,,,,"Victoria Station Frontage, Unit 38, 15 Victoria St SW1V 1JU",51.494769,-0.143122
Starbucks,12410-85691,Crouch End - Broadway,Company Owned,"7 The Broadway, Crouch End",London,ENG,GB,N8 8DU,2083470096,GMT+0:00 Europe/London,-0.124112,51.578666,,"7 The Broadway, Crouch End N8 8DU",,,,,,,"7 The Broadway, Crouch End N8 8DU",51.578666,-0.124112
Starbucks,12015-10856,King William Street,Company Owned,"87 King William St, Unit 5",London,ENG,GB,EC4N 7BJ,2079294099,GMT+0:00 Europe/London,-0.088063,51.51272,,"87 King William St, Unit 5 EC4N 7BJ",,,,,,,"87 King William St, Unit 5 EC4N 7BJ",51.51272,-0.088063
Starbucks,12313-43279,Wimbledon Hill Road,Company Owned,"10 Wimbledon Hill Rd, Unit 5",London,ENG,GB,SW19 7NS,2089446864,GMT+0:00 Europe/London,-0.207492,51.420993,,"10 Wimbledon Hill Rd, Unit 5 SW19 7NS",,,,,,,"10 Wimbledon Hill Rd, Unit 5 SW19 7NS",51.420993,-0.207492
Starbucks,12372-78702,Camden - Lock Keeper's Cottage,Company Owned,"289 Camden High st, Sulfolk Walk",London,ENG,GB,NW1 7BX,2074851986,GMT+0:00 Europe/London,-0.145335,51.541073,,"289 Camden High st, Sulfolk Walk NW1 7BX",,,,,,,"289 Camden High st, Sulfolk Walk NW1 7BX",51.541073,-0.145335
Starbucks,12428-90786,Paternoster Sq,Company Owned,"1 Paternoster House, Unit 7",London,ENG,GB,EC4M 7DX,2072363014,GMT+0:00 Europe/London,-0.099028,51.515189,,"1 Paternoster House, Unit 7 EC4M 7DX",,,,,,,"1 Paternoster House, Unit 7 EC4M 7DX",51.515189,-0.099028
Starbucks,26723-245129,Beckenham - High Street,Franchise,220 Beckenham High Street,London,ENG,GB,BR3 1EN,,GMT+0:00 Europe/London,-0.028772,51.406618,,220 Beckenham High Street BR3 1EN,,,,,,,220 Beckenham High Street BR3 1EN,51.406618,-0.028772
Starbucks,4152-153545,Borough High Street,Company Owned,55 Borough High Street,London,ENG,GB,SE1 1NB,2074033512,GMT+0:00 Europe/London,-0.089882,51.504646,,55 Borough High Street SE1 1NB,,,,,,,55 Borough High Street SE1 1NB,51.504646,-0.089882
Starbucks,12672-104116,Hammersmith - King Street,Company Owned,"38 King Street, Hammersmith",London,ENG,GB,W6 0YJ,2087483793,GMT+0:00 Europe/London,-0.228249,51.492751,,"38 King Street, Hammersmith W6 0YJ",,,,,,,"38 King Street, Hammersmith W6 0YJ",51.492751,-0.228249
Starbucks,12204-33419,Kensington - Gloucester Rd Station,Company Owned,83 Gloucester Road,London,ENG,GB,SW7 4SS,2073736810,GMT+0:00 Europe/London,-0.182383,51.494552,,83 Gloucester Road SW7 4SS,,,,,,,83 Gloucester Road SW7 4SS,51.494552,-0.182383
Starbucks,22890-225944,Baker Street Underground Station,Franchise,"Shop D, Metropolitan Line Ticket Hall, Baker Street Underground Station",London,ENG,GB,NW1 5LA,,GMT+0:00 Europe/London,-0.156863,51.523158,,"Shop D, Metropolitan Line Ticket Hall, Baker Street Underground Station NW1 5LA",,,,,,,"Shop D, Metropolitan Line Ticket Hall, Baker Street Underground Station NW1 5LA",51.523158,-0.156863
Starbucks,12164-25147,New Oxford Street,Company Owned,112 - 116 New Oxford Street,London,ENG,GB,WC1A 1HH,2076360935,GMT+0:00 Europe/London,-0.129334,51.516708,,112 - 116 New Oxford Street WC1A 1HH,,,,,,,112 - 116 New Oxford Street WC1A 1HH,51.516708,-0.129334
Starbucks,12256-40840,Lion Plaza-Old Broad Street,Company Owned,"13 - 15 Old Broad Street, Unit 4a",London,ENG,GB,EC2N 1DW,2073746134,GMT+0:00 Europe/London,-0.085228,51.514762,,"13 - 15 Old Broad Street, Unit 4a EC2N 1DW",,,,,,,"13 - 15 Old Broad Street, Unit 4a EC2N 1DW",51.514762,-0.085228
Starbucks,12230-41499,London Bridge - Hays Galleria,Company Owned,"Tooley Street, Unit 6, Hays Galleria",London,ENG,GB,SE1 2HD,2074070786,GMT+0:00 Europe/London,-0.083715,51.50619,,"Tooley Street, Unit 6, Hays Galleria SE1 2HD",,,,,,,"Tooley Street, Unit 6, Hays Galleria SE1 2HD",51.50619,-0.083715
Starbucks,12402-85701,Kensington High Street/Allen Street,Company Owned,197 Kensington High st,London,ENG,GB,W8 6BA,2079382335,GMT+0:00 Europe/London,-0.196106,51.499754,,197 Kensington High st W8 6BA,,,,,,,197 Kensington High st W8 6BA,51.499754,-0.196106
Starbucks,24136-236024,Mile End Road,Franchise,389 Mile End Road,London,ENG,GB,E3 4QS,,GMT+0:00 Europe/London,-0.035312,51.525117,,389 Mile End Road E3 4QS,,,,,,,389 Mile End Road E3 4QS,51.525117,-0.035312
Starbucks,12224-32119,Clerkenwell - Goswell Road,Company Owned,"8 Charterhouse Buildings, Goswell Road",London,ENG,GB,EC1M 7AN,2072531657,GMT+0:00 Europe/London,-0.098534,51.523098,,"8 Charterhouse Buildings, Goswell Road EC1M 7AN",,,,,,,"8 Charterhouse Buildings, Goswell Road EC1M 7AN",51.523098,-0.098534
Starbucks,47771-259784,Borehamwood - Shopping Park,Franchise,Unit 12 Tiger Borehamwood Shopping Park,London,ENG,GB,WD6 1AE,020 8953 9215,GMT+0:00 Europe/London,-0.276552,51.6556,,Unit 12 Tiger Borehamwood Shopping Park WD6 1AE,,,,,,,Unit 12 Tiger Borehamwood Shopping Park WD6 1AE,51.6556,-0.276552
Starbucks,12223-38279,South Bank - Globe,Company Owned,"New Globe Walk (Emerson Street), Unit 1-3 Benbow House",London,ENG,GB,SE1 9DS,2076339561,GMT+0:00 Europe/London,-0.096187,51.508024,,"New Globe Walk (Emerson Street), Unit 1-3 Benbow House SE1 9DS",,,,,,,"New Globe Walk (Emerson Street), Unit 1-3 Benbow House SE1 9DS",51.508024,-0.096187
Starbucks,12778-139697,Kingston - Clarence St,Company Owned,"91 Clarence St, Kingston upon Thames",London,ENG,GB,KT1 1QY,2085414836,GMT+0:00 Europe/London,-0.301737,51.410946,,"91 Clarence St, Kingston upon Thames KT1 1QY",,,,,,,"91 Clarence St, Kingston upon Thames KT1 1QY",51.410946,-0.301737
Starbucks,12625-224605,Canary Wharf - Churchill Place,Company Owned,Churchill Place,London,ENG,GB,,,GMT+0:00 Europe/London,-85.689826,43.047239,,Churchill Place ,,,,,,,Churchill Place ,43.047239,-85.689826
Starbucks,12644-102516,Charing Cross Road,Company Owned,"Charing Cross Road, Unit 1  129-133",London,ENG,GB,WC2H 0EA,2072877536,GMT+0:00 Europe/London,-0.127124,51.507188,,"Charing Cross Road, Unit 1  129-133 WC2H 0EA",,,,,,,"Charing Cross Road, Unit 1  129-133 WC2H 0EA",51.507188,-0.127124
Starbucks,12061-10545,Victoria St/Abbey Orchard St,Company Owned,27 Victoria Street,London,ENG,GB,SW1H 0EX,2072226298,GMT+0:00 Europe/London,-0.132607,51.49811,,27 Victoria Street SW1H 0EX,,,,,,,27 Victoria Street SW1H 0EX,51.49811,-0.132607
Starbucks,12326-210844,Canary Wharf - Jubilee Place,Company Owned,"Unit 11 + 12, Jubilee Place",London,ENG,GB,E14 5NY,,GMT+0:00 Europe/London,-0.017464,51.502988,,"Unit 11 + 12, Jubilee Place E14 5NY",,,,,,,"Unit 11 + 12, Jubilee Place E14 5NY",51.502988,-0.017464
Starbucks,20858-208629,Finsbury Park - Wells Terrace,Franchise,"Wells Terrace, Finsbury Park",London,ENG,GB,N4 3JU,,GMT+0:00 Europe/London,-0.107716,51.565314,,"Wells Terrace, Finsbury Park N4 3JU",,,,,,,"Wells Terrace, Finsbury Park N4 3JU",51.565314,-0.107716
Starbucks,12323-68884,Clapham - Old Town,Company Owned,"40-42 Old Town, Unit 1,",London,ENG,GB,SW4 0LB,2076270641,GMT+0:00 Europe/London,-0.141892,51.463826,,"40-42 Old Town, Unit 1, SW4 0LB",,,,,,,"40-42 Old Town, Unit 1, SW4 0LB",51.463826,-0.141892
Starbucks,12295-62259,South Bank - Hopton Street,Company Owned,"54 Hopton Street, Falcon Point, Lynton House",London,ENG,GB,SE1 9JH,2076339821,GMT+0:00 Europe/London,-0.102163,51.508262,,"54 Hopton Street, Falcon Point, Lynton House SE1 9JH",,,,,,,"54 Hopton Street, Falcon Point, Lynton House SE1 9JH",51.508262,-0.102163
Starbucks,12968-140731,"Lynton House, Tavistock Square",Company Owned,"Travistock Square, Selfridges",London,ENG,GB,WC1H 9LT,2073830078,GMT+0:00 Europe/London,-0.128487,51.525267,,"Travistock Square, Selfridges WC1H 9LT",,,,,,,"Travistock Square, Selfridges WC1H 9LT",51.525267,-0.128487
Starbucks,12364-77460,Oxford Street - Selfridges,Company Owned,400 oxford street,London,ENG,GB,W1A 1AB,2074919463,GMT+0:00 Europe/London,-0.153098,51.51458,,400 oxford street W1A 1AB,,,,,,,400 oxford street W1A 1AB,51.51458,-0.153098
Starbucks,1304-143865,Conduit Street,Company Owned,2/3 Conduit Street,London,ENG,GB,W1S 2BX,2074939754,GMT+0:00 Europe/London,-0.14118,51.513023,,2/3 Conduit Street W1S 2BX,,,,,,,2/3 Conduit Street W1S 2BX,51.513023,-0.14118
Starbucks,12397-85693,Chiswick - High Road/Fisher's Lane,Company Owned,280 Chiswick high road,London,ENG,GB,W4 1PD,2089941598,GMT+0:00 Europe/London,-0.259699,51.492672,,280 Chiswick high road W4 1PD,,,,,,,280 Chiswick high road W4 1PD,51.492672,-0.259699
Starbucks,12101-11903,Covent Garden - Russell St,Company Owned,10 Russell Street,London,ENG,GB,WC2B 5HZ,2078366231,GMT+0:00 Europe/London,-0.121623,51.512306,,10 Russell Street WC2B 5HZ,,,,,,,10 Russell Street WC2B 5HZ,51.512306,-0.121623
Starbucks,47901-260029,London Bridge-Shard Arcade,Company Owned,"Unit 5, The Shard Arcade, The Place, London Bridge, Colney Fields Shopping Centre",London,ENG,GB,SE1 9SG,2074077364,GMT+0:00 Europe/London,-0.087645,51.505029,,"Unit 5, The Shard Arcade, The Place, London Bridge, Colney Fields Shopping Centre SE1 9SG",,,,,,,"Unit 5, The Shard Arcade, The Place, London Bridge, Colney Fields Shopping Centre SE1 9SG",51.505029,-0.087645
